{"type": "FeatureCollection", "features": [ {"type": "Feature", "properties": {"norad_id": 34611, "name": "COSMOS 2251 DEB", "group": "cosmos-2251-debris", "lat": -73.79615553813814, "lon": -24.877086634545215, "alt_km": 682.6121266124828, "timestamp": "2025-12-25T22:42:17.407875+00:00", "meta": {"OBJECT_NAME": "COSMOS 2251 DEB", "OBJECT_ID": "1993-036WG", "EPOCH": "2025-12-25T05:18:21.278304", "MEAN_MOTION": 14.69716131, "ECCENTRICITY": 0.002148, "INCLINATION": 74.0531, "RA_OF_ASC_NODE": 76.8074, "ARG_OF_PERICENTER": 113.5707, "MEAN_ANOMALY": 279.3189, "EPHEMERIS_TYPE": 0, "CLASSIFICATION_TYPE": "U", "NORAD_CAT_ID": 34611, "ELEMENT_SET_NO": 999, "REV_AT_EPOCH": 88574, "BSTAR": 0.0014588, "MEAN_MOTION_DOT": 8.703e-05, "MEAN_MOTION_DDOT": 0}, "tle": {"line1": "1 34611U 93036WG  25359.22107961  .00008703  00000+0  14588-2 0  9993", "line2": "2 34611  74.0531  76.8074 0021480 113.5707 279.3189 14.69716131885748"}}, "geometry": {"type": "Point", "coordinates": [-24.877086634545215, -73.79615553813814]}}, {"type": "Feature", "properties": {"norad_id": 34613, "name": "COSMOS 2251 DEB", "group": "cosmos-2251-debris", "lat": 68.07054156631665, "lon": 28.974795004731668, "alt_km": 722.6217459553318, "timestamp": "2025-12-25T22:42:17.407885+00:00", "meta": {"OBJECT_NAME": "COSMOS 2251 DEB", "OBJECT_ID": "1993-036WJ", "EPOCH": "2025-12-24T17:45:16.187616", "MEAN_MOTION": 14.26502206, "ECCENTRICITY": 0.01107264, "INCLINATION": 73.9629, "RA_OF_ASC_NODE": 256.7621, "ARG_OF_PERICENTER": 85.5038, "MEAN_ANOMALY": 306.9262, "EPHEMERIS_TYPE": 0, "CLASSIFICATION_TYPE": "U", "NORAD_CAT_ID": 34613, "ELEMENT_SET_NO": 999, "REV_AT_EPOCH": 86634, "BSTAR": 0.0011571571, "MEAN_MOTION_DOT": 2.951e-05, "MEAN_MOTION_DDOT": 0}, "tle": {"line1": "1 34613U 93036WJ  25358.73977069  .00002951  00000+0  11572-2 0  9993", "line2": "2 34613  73.9629 256.7621 0110726  85.5038 306.9262 14.26502206866343"}}, "geometry": {"type": "Point", "coordinates": [28.974795004731668, 68.07054156631665]}}, {"type": "Feature", "properties": {"norad_id": 34614, "name": "COSMOS 2251 DEB", "group": "cosmos-2251-debris", "lat": -36.295274079625955, "lon": -52.14445741115099, "alt_km": 699.0738671925064, "timestamp": "2025-12-25T22:42:17.407895+00:00", "meta": {"OBJECT_NAME": "COSMOS 2251 DEB", "OBJECT_ID": "1993-036WK", "EPOCH": "2025-12-24T21:37:08.839200", "MEAN_MOTION": 14.17833523, "ECCENTRICITY": 0.0196231, "INCLINATION": 73.8822, "RA_OF_ASC_NODE": 321.9977, "ARG_OF_PERICENTER": 314.2153, "MEAN_ANOMALY": 74.3764, "EPHEMERIS_TYPE": 0, "CLASSIFICATION_TYPE": "U", "NORAD_CAT_ID": 34614, "ELEMENT_SET_NO": 999, "REV_AT_EPOCH": 84939, "BSTAR": 0.0067486, "MEAN_MOTION_DOT": 0.0001667, "MEAN_MOTION_DDOT": 0}, "tle": {"line1": "1 34614U 93036WK  25358.90079675  .00016670  00000+0  67486-2 0  9997", "line2": "2 34614  73.8822 321.9977 0196231 314.2153  74.3764 14.17833523849390"}}, "geometry": {"type": "Point", "coordinates": [-52.14445741115099, -36.295274079625955]}}, {"type": "Feature", "properties": {"norad_id": 34615, "name": "COSMOS 2251 DEB", "group": "cosmos-2251-debris", "lat": -14.072163165685511, "lon": -91.16087839367525, "alt_km": 1359.38672152437, "timestamp": "2025-12-25T22:42:17.407905+00:00", "meta": {"OBJECT_NAME": "COSMOS 2251 DEB", "OBJECT_ID": "1993-036WL", "EPOCH": "2025-12-23T05:51:02.282688", "MEAN_MOTION": 13.52205597, "ECCENTRICITY": 0.04004644, "INCLINATION": 74.0046, "RA_OF_ASC_NODE": 277.2944, "ARG_OF_PERICENTER": 182.2976, "MEAN_ANOMALY": 332.6284, "EPHEMERIS_TYPE": 0, "CLASSIFICATION_TYPE": "U", "NORAD_CAT_ID": 34615, "ELEMENT_SET_NO": 999, "REV_AT_EPOCH": 82957, "BSTAR": 0.00017989399, "MEAN_MOTION_DOT": 1.76e-06, "MEAN_MOTION_DDOT": 0}, "tle": {"line1": "1 34615U 93036WL  25357.24377642  .00000176  00000+0  17989-3 0  9997", "line2": "2 34615  74.0046 277.2944 0400464 182.2976 332.6284 13.52205597829578"}}, "geometry": {"type": "Point", "coordinates": [-91.16087839367525, -14.072163165685511]}}, {"type": "Feature", "properties": {"norad_id": 34619, "name": "COSMOS 2251 DEB", "group": "cosmos-2251-debris", "lat": -12.813832383625687, "lon": -1.7070009511767639, "alt_km": 662.2925633071727, "timestamp": "2025-12-25T22:42:17.407915+00:00", "meta": {"OBJECT_NAME": "COSMOS 2251 DEB", "OBJECT_ID": "1993-036WQ", "EPOCH": "2025-12-24T11:23:28.612608", "MEAN_MOTION": 14.64673165, "ECCENTRICITY": 0.00947394, "INCLINATION": 74.0428, "RA_OF_ASC_NODE": 177.3884, "ARG_OF_PERICENTER": 269.562, "MEAN_ANOMALY": 89.4692, "EPHEMERIS_TYPE": 0, "CLASSIFICATION_TYPE": "U", "NORAD_CAT_ID": 34619, "ELEMENT_SET_NO": 999, "REV_AT_EPOCH": 89470, "BSTAR": 0.00022155238, "MEAN_MOTION_DOT": 1.224e-05, "MEAN_MOTION_DDOT": 0}, "tle": {"line1": "1 34619U 93036WQ  25358.47463672  .00001224  00000+0  22155-3 0  9992", "line2": "2 34619  74.0428 177.3884 0094739 269.5620  89.4692 14.64673165894709"}}, "geometry": {"type": "Point", "coordinates": [-1.7070009511767639, -12.813832383625687]}}, {"type": "Feature", "properties": {"norad_id": 34620, "name": "COSMOS 2251 DEB", "group": "cosmos-2251-debris", "lat": 54.23550485317183, "lon": -141.8218305645777, "alt_km": 778.1598181042555, "timestamp": "2025-12-25T22:42:17.407925+00:00", "meta": {"OBJECT_NAME": "COSMOS 2251 DEB", "OBJECT_ID": "1993-036WR", "EPOCH": "2025-12-25T05:52:11.354304", "MEAN_MOTION": 14.49289959, "ECCENTRICITY": 0.0079483, "INCLINATION": 74.0512, "RA_OF_ASC_NODE": 196.1003, "ARG_OF_PERICENTER": 229.6925, "MEAN_ANOMALY": 129.7272, "EPHEMERIS_TYPE": 0, "CLASSIFICATION_TYPE": "U", "NORAD_CAT_ID": 34620, "ELEMENT_SET_NO": 999, "REV_AT_EPOCH": 87008, "BSTAR": 0.0022624, "MEAN_MOTION_DOT": 8.969e-05, "MEAN_MOTION_DDOT": 0}, "tle": {"line1": "1 34620U 93036WR  25359.24457586  .00008969  00000+0  22624-2 0  9990", "line2": "2 34620  74.0512 196.1003 0079483 229.6925 129.7272 14.49289959870085"}}, "geometry": {"type": "Point", "coordinates": [-141.8218305645777, 54.23550485317183]}}, {"type": "Feature", "properties": {"norad_id": 34622, "name": "COSMOS 2251 DEB", "group": "cosmos-2251-debris", "lat": -25.109676146477426, "lon": 111.02259048705366, "alt_km": 892.6854976060486, "timestamp": "2025-12-25T22:42:17.407935+00:00", "meta": {"OBJECT_NAME": "COSMOS 2251 DEB", "OBJECT_ID": "1993-036WT", "EPOCH": "2025-12-24T20:40:50.649312", "MEAN_MOTION": 14.22091723, "ECCENTRICITY": 0.01049596, "INCLINATION": 74.0422, "RA_OF_ASC_NODE": 285.2613, "ARG_OF_PERICENTER": 4.8683, "MEAN_ANOMALY": 52.5969, "EPHEMERIS_TYPE": 0, "CLASSIFICATION_TYPE": "U", "NORAD_CAT_ID": 34622, "ELEMENT_SET_NO": 999, "REV_AT_EPOCH": 86632, "BSTAR": 0.00082163825, "MEAN_MOTION_DOT": 1.899e-05, "MEAN_MOTION_DDOT": 0}, "tle": {"line1": "1 34622U 93036WT  25358.86169733  .00001899  00000+0  82164-3 0  9994", "line2": "2 34622  74.0422 285.2613 0104959   4.8683  52.5969 14.22091723866324"}}, "geometry": {"type": "Point", "coordinates": [111.02259048705366, -25.109676146477426]}}, {"type": "Feature", "properties": {"norad_id": 34626, "name": "COSMOS 2251 DEB", "group": "cosmos-2251-debris", "lat": -68.62740376346804, "lon": 165.17364750931705, "alt_km": 672.0057749626276, "timestamp": "2025-12-25T22:42:17.407945+00:00", "meta": {"OBJECT_NAME": "COSMOS 2251 DEB", "OBJECT_ID": "1993-036WX", "EPOCH": "2025-12-25T14:11:46.324032", "MEAN_MOTION": 14.72354845, "ECCENTRICITY": 0.0027207, "INCLINATION": 74.0486, "RA_OF_ASC_NODE": 298.904, "ARG_OF_PERICENTER": 23.5954, "MEAN_ANOMALY": 153.8378, "EPHEMERIS_TYPE": 0, "CLASSIFICATION_TYPE": "U", "NORAD_CAT_ID": 34626, "ELEMENT_SET_NO": 999, "REV_AT_EPOCH": 89333, "BSTAR": 0.0011772, "MEAN_MOTION_DOT": 7.47e-05, "MEAN_MOTION_DDOT": 0}, "tle": {"line1": "1 34626U 93036WX  25359.59150838  .00007470  00000+0  11772-2 0  9992", "line2": "2 34626  74.0486 298.9040 0027207  23.5954 153.8378 14.72354845893334"}}, "geometry": {"type": "Point", "coordinates": [165.17364750931705, -68.62740376346804]}}, {"type": "Feature", "properties": {"norad_id": 34634, "name": "COSMOS 2251 DEB", "group": "cosmos-2251-debris", "lat": -6.575963706562056, "lon": 8.080091566580514, "alt_km": 725.9688173813747, "timestamp": "2025-12-25T22:42:17.407955+00:00", "meta": {"OBJECT_NAME": "COSMOS 2251 DEB", "OBJECT_ID": "1993-036XF", "EPOCH": "2025-12-25T11:55:29.403840", "MEAN_MOTION": 14.55691404, "ECCENTRICITY": 0.0043661, "INCLINATION": 74.0513, "RA_OF_ASC_NODE": 10.8193, "ARG_OF_PERICENTER": 114.3082, "MEAN_ANOMALY": 46.5124, "EPHEMERIS_TYPE": 0, "CLASSIFICATION_TYPE": "U", "NORAD_CAT_ID": 34634, "ELEMENT_SET_NO": 999, "REV_AT_EPOCH": 88967, "BSTAR": 0.00029644, "MEAN_MOTION_DOT": 1.283e-05, "MEAN_MOTION_DDOT": 0}, "tle": {"line1": "1 34634U 93036XF  25359.49686810  .00001283  00000+0  29644-3 0  9998", "line2": "2 34634  74.0513  10.8193 0043661 114.3082  46.5124 14.55691404889672"}}, "geometry": {"type": "Point", "coordinates": [8.080091566580514, -6.575963706562056]}}, {"type": "Feature", "properties": {"norad_id": 34635, "name": "COSMOS 2251 DEB", "group": "cosmos-2251-debris", "lat": 72.50192126017798, "lon": 160.03707880067742, "alt_km": 639.7352719838209, "timestamp": "2025-12-25T22:42:17.407965+00:00", "meta": {"OBJECT_NAME": "COSMOS 2251 DEB", "OBJECT_ID": "1993-036XG", "EPOCH": "2025-12-25T12:59:51.285984", "MEAN_MOTION": 14.6841759, "ECCENTRICITY": 0.0027636, "INCLINATION": 74.0452, "RA_OF_ASC_NODE": 45.9729, "ARG_OF_PERICENTER": 110.0823, "MEAN_ANOMALY": 9.9649, "EPHEMERIS_TYPE": 0, "CLASSIFICATION_TYPE": "U", "NORAD_CAT_ID": 34635, "ELEMENT_SET_NO": 999, "REV_AT_EPOCH": 73407, "BSTAR": 0.0010124, "MEAN_MOTION_DOT": 5.865e-05, "MEAN_MOTION_DDOT": 0}, "tle": {"line1": "1 34635U 93036XG  25359.54156581  .00005865  00000+0  10124-2 0  9994", "line2": "2 34635  74.0452  45.9729 0027636 110.0823   9.9649 14.68417590734073"}}, "geometry": {"type": "Point", "coordinates": [160.03707880067742, 72.50192126017798]}}]}